MEAN_MOTION;ECCENTRICITY;INCLINATION;RA_OF_ASC_NODE;ARG_OF_PERICENTER;MEAN_ANOMALY;BSTAR;MEAN_MOTION_DOT;MEAN_MOTION_DDOT;TYPE
14.32739064;0.0002966;45.0251;43.0389;218.788;141.2754;8.3466E-5;8.9E-7;0;Orbcomm
14.32739147;0.0002977;45.0251;42.0559;219.5568;140.5061;8.2972E-5;8.7E-7;0;Orbcomm
14.32739534;0.0003006;45.0252;37.4688;223.3258;136.7352;7.7717E-5;7.3E-7;0;Orbcomm
14.32739574;0.0003015;45.0253;36.4858;223.9914;136.0693;7.4598E-5;6.4E-7;0;Orbcomm
14.32739908;0.0003046;45.0254;32.8817;227.0347;133.0244;7.2932E-5;6.0E-7;0;Orbcomm
14.32739965;0.0003042;45.0254;31.5712;227.9439;132.1149;6.9604E-5;5.1E-7;0;Orbcomm
14.32740045;0.0003052;45.0254;30.5883;228.8145;131.2438;6.8879E-5;4.9E-7;0;Orbcomm
14.32740275;0.0003073;45.0254;27.967;230.9833;129.074;6.8586E-5;4.8E-7;0;Orbcomm
14.32740427;0.0003076;45.0255;26.3288;232.2239;127.8329;6.981E-5;5.1E-7;0;Orbcomm
14.32741056;0.0003114;45.0256;19.1205;238.0531;122.0013;7.5106E-5;6.6E-7;0;Orbcomm
14.32741076;0.0003116;45.0255;18.7928;238.2428;121.8115;7.4776E-5;6.5E-7;0;Orbcomm
14.32741166;0.0003125;45.0255;14.2056;241.61;118.4431;6.9499E-5;5.0E-7;0;Orbcomm
14.32741464;0.000314;45.0256;9.2908;245.0917;114.9603;6.9478E-5;5.0E-7;0;Orbcomm
14.32741528;0.0003137;45.0256;8.3079;245.822;114.2298;6.9821E-5;5.1E-7;0;Orbcomm
14.32741763;0.0003145;45.0256;4.3761;248.6232;111.4279;6.4987E-5;3.8E-7;0;Orbcomm
14.32741844;0.0003144;45.0256;3.3932;249.4045;110.6464;6.552E-5;3.9E-7;0;Orbcomm
14.32742148;0.0003143;45.0256;0.1167;251.6952;108.3552;6.5632E-5;4.0E-7;0;Orbcomm
14.32742342;0.0003136;45.0256;358.1509;252.9932;107.0571;6.655E-5;4.2E-7;0;Orbcomm
14.3274271;0.000314;45.0256;355.202;254.9921;105.0578;7.2444E-5;5.8E-7;0;Orbcomm
14.32743124;0.0003134;45.0256;352.2533;257.3844;102.6652;7.9709E-5;7.8E-7;0;Orbcomm
14.32743351;0.0003132;45.0256;350.2874;258.6879;101.3616;8.1264E-5;8.3E-7;0;Orbcomm
14.32743731;0.0003135;45.0256;347.3387;260.9281;99.1211;8.6293E-5;9.6E-7;0;Orbcomm
14.32743868;0.0003129;45.0256;346.3557;261.4901;98.5591;8.7986E-5;1.01E-6;0;Orbcomm
14.32744287;0.0003118;45.0255;342.7516;264.1164;95.9327;9.2953E-5;1.15E-6;0;Orbcomm
14.327444;0.0003111;45.0254;341.7687;264.8607;95.1884;9.4445E-5;1.19E-6;0;Orbcomm
14.32744537;0.0003102;45.0254;340.4581;265.7769;94.2723;9.5855E-5;1.23E-6;0;Orbcomm
14.32745223;0.0003071;45.0251;331.6115;271.9225;88.1269;9.1809E-5;1.12E-6;0;Orbcomm
14.32745422;0.0003065;45.025;328.9903;273.8503;86.1993;8.9442E-5;1.05E-6;0;Orbcomm
14.32745456;0.0003043;45.0249;327.0243;274.9508;85.0991;8.1312E-5;8.3E-7;0;Orbcomm
14.32745785;0.0003019;45.0248;322.7647;277.8708;82.1796;7.6428E-5;6.9E-7;0;Orbcomm
14.32745844;0.0003012;45.0248;322.1095;278.3064;81.7441;7.6213E-5;6.9E-7;0;Orbcomm
14.32746112;0.0002993;45.0247;318.5051;280.8958;79.1552;7.0016E-5;5.2E-7;0;Orbcomm
14.32746603;0.0002965;45.0246;313.2626;284.6951;75.3567;6.8842E-5;4.8E-7;0;Orbcomm
14.32746653;0.0002959;45.0246;312.935;284.8911;75.1608;6.9813E-5;5.1E-7;0;Orbcomm
14.32747174;0.0002921;45.0245;308.3477;287.966;72.0867;7.4816E-5;6.5E-7;0;Orbcomm
14.32747253;0.0002915;45.0245;307.6924;288.4935;71.5594;7.5959E-5;6.8E-7;0;Orbcomm
14.32747601;0.0002881;45.0244;305.071;289.7535;70.3001;8.1317E-5;8.3E-7;0;Orbcomm
14.32747785;0.0002861;45.0244;303.4327;291.0195;69.0345;8.3322E-5;8.8E-7;0;Orbcomm
14.32747823;0.0002854;45.0244;302.7775;291.4253;68.6289;8.2036E-5;8.5E-7;0;Orbcomm
14.32748098;0.0002831;45.0243;300.1561;293.0226;67.0321;8.4946E-5;9.3E-7;0;Orbcomm
14.32748216;0.0002817;45.0243;298.8455;294.0164;66.0388;8.6124E-5;9.6E-7;0;Orbcomm
14.32748572;0.0002764;45.0242;294.5857;296.4682;63.5881;8.5388E-5;9.4E-7;0;Orbcomm
14.32748611;0.0002757;45.0241;293.9304;296.9326;63.1239;8.5062E-5;9.3E-7;0;Orbcomm
14.32748786;0.0002734;45.0241;291.3089;298.5904;61.4667;8.2438E-5;8.6E-7;0;Orbcomm
14.32749188;0.0002672;45.0239;286.7216;301.236;58.8225;7.971E-5;7.8E-7;0;Orbcomm
14.32749595;0.0002604;45.0239;282.1343;303.5701;56.4897;7.6407E-5;6.9E-7;0;Orbcomm
14.32749951;0.0002552;45.0238;278.2022;305.8422;54.2187;7.3916E-5;6.2E-7;0;Orbcomm
14.32750025;0.0002534;45.0238;276.8915;306.5992;53.4621;7.203E-5;5.7E-7;0;Orbcomm
14.32750426;0.000249;45.0238;272.6317;309.6376;50.4251;7.2312E-5;5.8E-7;0;Orbcomm
14.32750612;0.0002466;45.0238;270.9935;311.0282;49.0351;7.3767E-5;6.2E-7;0;Orbcomm
14.32750924;0.0002435;45.0238;267.7167;313.4514;46.6129;7.4785E-5;6.5E-7;0;Orbcomm
14.3275102;0.0002413;45.0239;266.0785;314.5437;45.5212;7.3471E-5;6.1E-7;0;Orbcomm
14.32751289;0.000236;45.0239;261.8188;317.3876;42.6787;7.0841E-5;5.4E-7;0;Orbcomm
14.32751309;0.0002355;45.0239;261.4912;317.6077;42.4587;7.0564E-5;5.3E-7;0;Orbcomm
14.32751481;0.000231;45.0239;258.2144;319.7614;40.3061;6.7801E-5;4.6E-7;0;Orbcomm
14.32751681;0.0002251;45.0239;253.6272;322.9974;37.0717;6.1612E-5;2.9E-7;0;Orbcomm
14.32751721;0.0002226;45.0238;252.6442;323.679;36.3905;6.0445E-5;2.5E-7;0;Orbcomm
14.32752045;0.0002153;45.0238;247.4016;327.198;32.8732;5.5496E-5;1.2E-7;0;Orbcomm
14.32752178;0.0002107;45.0238;244.4526;329.1271;30.9451;5.0102E-5;-3.0E-8;0;Orbcomm
14.3275245;0.0002046;45.0237;240.193;332.0876;27.986;4.7827E-5;-9.0E-8;0;Orbcomm
14.32752519;0.0002009;45.0238;238.2271;333.306;26.7683;4.4433E-5;-1.9E-7;0;Orbcomm
14.32752714;0.0001958;45.0238;234.9504;335.407;24.6683;4.3079E-5;-2.2E-7;0;Orbcomm
14.32752764;0.0001933;45.0238;233.3121;336.5564;23.5194;4.209E-5;-2.5E-7;0;Orbcomm
14.32753051;0.0001854;45.0238;228.7247;339.7234;20.3539;4.5828E-5;-1.5E-7;0;Orbcomm
14.32753237;0.0001792;45.0238;224.7928;342.5934;17.4851;4.804E-5;-9.0E-8;0;Orbcomm
14.32753498;0.0001717;45.0239;220.8609;344.8246;15.2549;5.2768E-5;4.0E-8;0;Orbcomm
14.32753565;0.0001716;45.0239;220.5332;344.9413;15.1382;5.526E-5;1.1E-7;0;Orbcomm
14.327539;0.0001666;45.0239;216.9289;347.5679;12.5126;6.3752E-5;3.4E-7;0;Orbcomm
14.32754152;0.0001612;45.0239;213.3248;350.3449;9.7366;6.4069E-5;3.5E-7;0;Orbcomm
14.32754284;0.0001584;45.0238;212.0141;351.5806;8.5014;6.5414E-5;3.9E-7;0;Orbcomm
14.32754642;0.0001513;45.0238;208.0822;355.9166;4.1668;6.6259E-5;4.1E-7;0;Orbcomm
14.32754897;0.0001473;45.0237;205.7887;357.8345;2.2495;6.716E-5;4.4E-7;0;Orbcomm
14.32755151;0.0001405;45.0237;202.1844;1.047;359.0379;6.1237E-5;2.8E-7;0;Orbcomm
14.32755213;0.0001383;45.0236;200.8738;2.1497;357.9355;5.7824E-5;1.8E-7;0;Orbcomm
14.32755439;0.0001304;45.0235;196.6142;6.3888;353.6975;5.1073E-5;0;0;Orbcomm
14.32755676;0.0001229;45.0234;192.027;10.7997;349.2876;4.6032E-5;-1.4E-7;0;Orbcomm
14.32755816;0.0001186;45.0233;189.4056;13.1536;346.9341;4.6326E-5;-1.3E-7;0;Orbcomm
14.32756008;0.0001155;45.0233;187.7673;14.8726;345.2154;5.2197E-5;3.0E-8;0;Orbcomm
14.32756416;0.0001077;45.0232;183.18;20.3629;339.726;6.2846E-5;3.2E-7;0;Orbcomm
14.32756958;0.0001017;45.0231;178.5927;25.7517;334.338;7.9637E-5;7.8E-7;0;Orbcomm
14.32757186;9.64E-5;45.023;175.3159;29.9852;330.105;7.9903E-5;7.9E-7;0;Orbcomm
14.32757341;9.47E-5;45.023;174.0053;32.4936;327.5969;8.3146E-5;8.8E-7;0;Orbcomm
14.32757761;8.85E-5;45.023;169.4179;38.9356;321.1554;8.293E-5;8.7E-7;0;Orbcomm
14.32757787;8.84E-5;45.023;169.0903;39.2289;320.8621;8.2551E-5;8.6E-7;0;Orbcomm
14.32757821;8.8E-5;45.023;168.7626;39.6938;320.3972;8.2508E-5;8.6E-7;0;Orbcomm
14.3275816;8.26E-5;45.023;164.503;46.9142;313.1773;7.5954E-5;6.8E-7;0;Orbcomm
14.32758168;8.24E-5;45.023;164.1753;46.9903;313.1012;7.4035E-5;6.3E-7;0;Orbcomm
14.32758487;7.75E-5;45.0229;159.2603;55.6076;304.4844;6.1977E-5;3.0E-7;0;Orbcomm
14.32758874;7.23E-5;45.0229;153.3623;66.5351;293.5571;5.2586E-5;4.0E-8;0;Orbcomm
14.32758959;7.11E-5;45.0229;152.0516;69.5853;290.507;5.1947E-5;2.0E-8;0;Orbcomm
14.32759233;6.89E-5;45.0228;147.1365;80.2185;279.8739;4.9136E-5;-6.0E-8;0;Orbcomm
14.32759294;6.9E-5;45.0228;145.8259;82.8603;277.2322;4.9127E-5;-6.0E-8;0;Orbcomm
14.32759633;6.86E-5;45.0228;141.2384;93.2287;266.8637;5.5432E-5;1.2E-7;0;Orbcomm
14.3275966;6.86E-5;45.0228;140.9107;94.0166;266.0759;5.5879E-5;1.3E-7;0;Orbcomm
14.32759996;7.0E-5;45.0227;136.3233;104.2981;255.7943;6.1142E-5;2.7E-7;0;Orbcomm
14.32759996;7.0E-5;45.0227;136.3233;104.2981;255.7943;6.1142E-5;2.7E-7;0;Orbcomm
14.32760514;7.23E-5;45.0228;131.7358;113.1724;246.9199;7.3023E-5;6.0E-7;0;Orbcomm
14.32760688;7.47E-5;45.0229;128.459;120.5388;239.5532;6.6465E-5;4.2E-7;0;Orbcomm
14.32761011;7.75E-5;45.023;124.8545;127.2042;232.8875;6.673E-5;4.3E-7;0;Orbcomm
14.32761163;7.95E-5;45.0231;123.5439;130.073;230.0186;6.7655E-5;4.5E-7;0;Orbcomm
14.3276154;8.09E-5;45.0231;122.2332;132.2941;227.7974;8.2465E-5;8.6E-7;0;Orbcomm
14.32761769;8.62E-5;45.0233;117.6458;139.4771;220.6139;6.7502E-5;4.5E-7;0;Orbcomm
14.32762252;9.21E-5;45.0235;113.0585;146.7076;213.3828;6.9045E-5;4.9E-7;0;Orbcomm
14.32762585;9.66E-5;45.0236;109.7818;151.1466;208.9434;7.1222E-5;5.5E-7;0;Orbcomm
14.32762847;0.000102;45.0237;105.8497;156.3511;203.7382;6.7438E-5;4.5E-7;0;Orbcomm
14.32763001;0.0001046;45.0238;104.2115;157.9415;202.1477;6.8797E-5;4.8E-7;0;Orbcomm
14.3276332;0.0001123;45.0239;99.2965;163.6313;196.457;6.6348E-5;4.2E-7;0;Orbcomm
14.32763572;0.0001195;45.024;94.7091;168.0863;192.0012;6.2002E-5;3.0E-7;0;Orbcomm
14.32763724;0.0001238;45.0241;92.0877;170.9449;189.142;5.921E-5;2.2E-7;0;Orbcomm
14.32763776;0.0001259;45.0242;91.1047;171.8618;188.2249;5.7286E-5;1.7E-7;0;Orbcomm
14.32763864;0.0001275;45.0242;89.7941;172.9471;187.1393;5.6315E-5;1.4E-7;0;Orbcomm
14.3276419;0.0001353;45.0244;85.2068;177.4673;182.6181;5.3703E-5;7.0E-8;0;Orbcomm
14.32764494;0.0001432;45.0246;80.6195;181.5991;178.4852;5.0913E-5;-1.0E-8;0;Orbcomm
14.32764766;0.0001502;45.0248;76.6875;185.1844;174.8988;5.1075E-5;0;0;Orbcomm
14.32764972;0.0001549;45.0249;73.7386;188.0883;171.9938;5.2227E-5;3.0E-8;0;Orbcomm
14.32765056;0.0001588;45.025;71.4451;189.5481;170.5335;5.0385E-5;-2.0E-8;0;Orbcomm
14.32765202;0.0001642;45.0251;68.4961;191.9838;168.0969;4.9519E-5;-5.0E-8;0;Orbcomm
14.3276531;0.0001711;45.0252;64.2366;195.2829;164.7966;4.6478E-5;-1.3E-7;0;Orbcomm
14.32765325;0.0001717;45.0252;63.909;195.4396;164.6399;4.6167E-5;-1.4E-7;0;Orbcomm
14.32765521;0.0001793;45.0253;59.3219;198.8314;161.2467;4.6442E-5;-1.3E-7;0;Orbcomm
